ONEWEB-0240             
1 48785U 21045U   23226.22808152 -.00000101  00000+0 -30151-3 0  9993
2 48785  87.8991 105.8712 0002153  92.7895 267.3482 13.15546806109057
ONEWEB-0246             
1 48786U 21045V   23227.06048062 -.00000065  00000+0 -20652-3 0  9997
2 48786  87.8989 105.7057 0001768  98.2086 261.9245 13.15551532109037
ONEWEB-0210             
1 48787U 21045W   23227.03512391  .00000197  00000+0  49029-3 0  9999
2 48787  87.8987 105.7200 0001146 103.8174 256.3084 13.15546735109080
ONEWEB-0214             
1 48788U 21045X   23227.04570385  .00000119  00000+0  28178-3 0  9994
2 48788  87.8989 105.7070 0001045  98.2874 261.8375 13.15547345109048
ONEWEB-0221             
1 48789U 21045Y   23226.21541179  .00000228  00000+0  57192-3 0  9991
2 48789  87.8993 105.8819 0001891  89.8279 270.3068 13.15549657109042
ONEWEB-0213             
1 48790U 21045Z   23227.03936735  .00000155  00000+0  37808-3 0  9991
2 48790  87.8989 105.7360 0001734  96.3138 263.8190 13.15547352109203
ONEWEB-0212             
1 48791U 21045AA  23227.09640389  .00000117  00000+0  27647-3 0  9993
2 48791  87.8988 105.7054 0001929  74.7436 285.3907 13.15546414109214
ONEWEB-0227             
1 48792U 21045AB  23226.17737692  .00000016  00000+0  86384-5 0  9999
2 48792  87.8991 105.9028 0001968  85.1007 275.0348 13.15549142109031
